CCSDS_OMM_VERS = 2.0
CREATION_DATE  = 
ORIGINATOR     = 

OBJECT_NAME    = SEASAT 1
OBJECT_ID      = 1978-064A
CENTER_NAME    = EARTH
REF_FRAME      = TEME
TIME_SYSTEM    = UTC
MEAN_ELEMENT_THEORY = SGP/SGP4

EPOCH          = 2026-02-09T14:52:03.971424
MEAN_MOTION    = 14.46137451
ECCENTRICITY   = .00016315
INCLINATION    = 108.0162
RA_OF_ASC_NODE = 66.5907
ARG_OF_PERICENTER = 291.5277
MEAN_ANOMALY   = 68.5695

EPHEMERIS_TYPE = 0
CLASSIFICATION_TYPE = U
NORAD_CAT_ID   = 10967
ELEMENT_SET_NO = 999
REV_AT_EPOCH   = 50245
BSTAR          = .13459692E-3
MEAN_MOTION_DOT = .344E-5
MEAN_MOTION_DDOT = 0

CCSDS_OMM_VERS = 2.0
CREATION_DATE  = 
ORIGINATOR     = 

OBJECT_NAME    = SL-14 R/B
OBJECT_ID      = 1979-011B
CENTER_NAME    = EARTH
REF_FRAME      = TEME
TIME_SYSTEM    = UTC
MEAN_ELEMENT_THEORY = SGP/SGP4

EPOCH          = 2026-02-09T14:41:13.379424
MEAN_MOTION    = 14.91873636
ECCENTRICITY   = .00169348
INCLINATION    = 82.5253
RA_OF_ASC_NODE = 123.2122
ARG_OF_PERICENTER = 146.9698
MEAN_ANOMALY   = 213.2584

EPHEMERIS_TYPE = 0
CLASSIFICATION_TYPE = U
NORAD_CAT_ID   = 11267
ELEMENT_SET_NO = 999
REV_AT_EPOCH   = 52459
BSTAR          = .70444838E-4
MEAN_MOTION_DOT = .739E-5
MEAN_MOTION_DDOT = 0

CCSDS_OMM_VERS = 2.0
CREATION_DATE  = 
ORIGINATOR     = 

OBJECT_NAME    = SL-8 R/B
OBJECT_ID      = 1979-089B
CENTER_NAME    = EARTH
REF_FRAME      = TEME
TIME_SYSTEM    = UTC
MEAN_ELEMENT_THEORY = SGP/SGP4

EPOCH          = 2026-02-09T14:03:01.147680
MEAN_MOTION    = 14.42333143
ECCENTRICITY   = .00166069
INCLINATION    = 74.0698
RA_OF_ASC_NODE = 143.0662
ARG_OF_PERICENTER = 319.1946
MEAN_ANOMALY   = 40.7965

EPHEMERIS_TYPE = 0
CLASSIFICATION_TYPE = U
NORAD_CAT_ID   = 11574
ELEMENT_SET_NO = 999
REV_AT_EPOCH   = 43205
BSTAR          = .10974249E-3
MEAN_MOTION_DOT = .337E-5
MEAN_MOTION_DDOT = 0

CCSDS_OMM_VERS = 2.0
CREATION_DATE  = 
ORIGINATOR     = 

OBJECT_NAME    = SL-14 R/B
OBJECT_ID      = 1980-005B
CENTER_NAME    = EARTH
REF_FRAME      = TEME
TIME_SYSTEM    = UTC
MEAN_ELEMENT_THEORY = SGP/SGP4

EPOCH          = 2026-02-09T06:30:10.985472
MEAN_MOTION    = 14.90892686
ECCENTRICITY   = .0014129
INCLINATION    = 82.5175
RA_OF_ASC_NODE = 334.1850
ARG_OF_PERICENTER = 257.3846
MEAN_ANOMALY   = 102.5793

EPHEMERIS_TYPE = 0
CLASSIFICATION_TYPE = U
NORAD_CAT_ID   = 11672
ELEMENT_SET_NO = 999
REV_AT_EPOCH   = 47225
BSTAR          = .85246E-4
MEAN_MOTION_DOT = .866E-5
MEAN_MOTION_DDOT = 0

CCSDS_OMM_VERS = 2.0
CREATION_DATE  = 
ORIGINATOR     = 

OBJECT_NAME    = SL-8 R/B
OBJECT_ID      = 1981-003B
CENTER_NAME    = EARTH
REF_FRAME      = TEME
TIME_SYSTEM    = UTC
MEAN_ELEMENT_THEORY = SGP/SGP4

EPOCH          = 2026-02-09T05:57:26.551008
MEAN_MOTION    = 15.09943655
ECCENTRICITY   = .0263215
INCLINATION    = 82.9390
RA_OF_ASC_NODE = 316.3003
ARG_OF_PERICENTER = 277.9687
MEAN_ANOMALY   = 79.1751

EPHEMERIS_TYPE = 0
CLASSIFICATION_TYPE = U
NORAD_CAT_ID   = 12139
ELEMENT_SET_NO = 999
REV_AT_EPOCH   = 31038
BSTAR          = .51805E-3
MEAN_MOTION_DOT = .19549E-3
MEAN_MOTION_DDOT = 0

CCSDS_OMM_VERS = 2.0
CREATION_DATE  = 
ORIGINATOR     = 

OBJECT_NAME    = SL-3 R/B
OBJECT_ID      = 1981-046B
CENTER_NAME    = EARTH
REF_FRAME      = TEME
TIME_SYSTEM    = UTC
MEAN_ELEMENT_THEORY = SGP/SGP4

EPOCH          = 2026-02-09T10:03:48.964608
MEAN_MOTION    = 15.41199338
ECCENTRICITY   = .00207211
INCLINATION    = 81.2340
RA_OF_ASC_NODE = 323.6633
ARG_OF_PERICENTER = 114.7831
MEAN_ANOMALY   = 245.5571

EPHEMERIS_TYPE = 0
CLASSIFICATION_TYPE = U
NORAD_CAT_ID   = 12465
ELEMENT_SET_NO = 999
REV_AT_EPOCH   = 43407
BSTAR          = .3379372E-3
MEAN_MOTION_DOT = .1417E-3
MEAN_MOTION_DDOT = 0

CCSDS_OMM_VERS = 2.0
CREATION_DATE  = 
ORIGINATOR     = 

OBJECT_NAME    = SL-3 R/B
OBJECT_ID      = 1981-103B
CENTER_NAME    = EARTH
REF_FRAME      = TEME
TIME_SYSTEM    = UTC
MEAN_ELEMENT_THEORY = SGP/SGP4

EPOCH          = 2026-02-09T14:51:39.795840
MEAN_MOTION    = 15.21033581
ECCENTRICITY   = .00137066
INCLINATION    = 81.1565
RA_OF_ASC_NODE = 246.3581
ARG_OF_PERICENTER = 23.6753
MEAN_ANOMALY   = 336.5106

EPHEMERIS_TYPE = 0
CLASSIFICATION_TYPE = U
NORAD_CAT_ID   = 12904
ELEMENT_SET_NO = 999
REV_AT_EPOCH   = 96896
BSTAR          = .22191625E-3
MEAN_MOTION_DOT = .4961E-4
MEAN_MOTION_DDOT = 0

CCSDS_OMM_VERS = 2.0
CREATION_DATE  = 
ORIGINATOR     = 

OBJECT_NAME    = SL-3 R/B
OBJECT_ID      = 1982-013B
CENTER_NAME    = EARTH
REF_FRAME      = TEME
TIME_SYSTEM    = UTC
MEAN_ELEMENT_THEORY = SGP/SGP4

EPOCH          = 2026-02-09T13:45:58.360896
MEAN_MOTION    = 15.21700142
ECCENTRICITY   = .00216753
INCLINATION    = 81.1742
RA_OF_ASC_NODE = 193.7107
ARG_OF_PERICENTER = 274.9487
MEAN_ANOMALY   = 84.9270

EPHEMERIS_TYPE = 0
CLASSIFICATION_TYPE = U
NORAD_CAT_ID   = 13068
ELEMENT_SET_NO = 999
REV_AT_EPOCH   = 40007
BSTAR          = .2541645E-3
MEAN_MOTION_DOT = .5813E-4
MEAN_MOTION_DDOT = 0

CCSDS_OMM_VERS = 2.0
CREATION_DATE  = 
ORIGINATOR     = 

OBJECT_NAME    = SL-3 R/B
OBJECT_ID      = 1982-039B
CENTER_NAME    = EARTH
REF_FRAME      = TEME
TIME_SYSTEM    = UTC
MEAN_ELEMENT_THEORY = SGP/SGP4

EPOCH          = 2026-02-09T15:02:08.794752
MEAN_MOTION    = 15.09923805
ECCENTRICITY   = .0030075
INCLINATION    = 81.1611
RA_OF_ASC_NODE = 248.3090
ARG_OF_PERICENTER = 56.2502
MEAN_ANOMALY   = 304.1582

EPHEMERIS_TYPE = 0
CLASSIFICATION_TYPE = U
NORAD_CAT_ID   = 13154
ELEMENT_SET_NO = 999
REV_AT_EPOCH   = 37740
BSTAR          = .14807787E-3
MEAN_MOTION_DOT = .2449E-4
MEAN_MOTION_DDOT = 0

CCSDS_OMM_VERS = 2.0
CREATION_DATE  = 
ORIGINATOR     = 

OBJECT_NAME    = SL-3 R/B
OBJECT_ID      = 1982-079B
CENTER_NAME    = EARTH
REF_FRAME      = TEME
TIME_SYSTEM    = UTC
MEAN_ELEMENT_THEORY = SGP/SGP4

EPOCH          = 2026-02-09T13:49:29.865504
MEAN_MOTION    = 15.24384429
ECCENTRICITY   = .00241636
INCLINATION    = 81.1446
RA_OF_ASC_NODE = 226.2641
ARG_OF_PERICENTER = 261.3921
MEAN_ANOMALY   = 98.4575

EPHEMERIS_TYPE = 0
CLASSIFICATION_TYPE = U
NORAD_CAT_ID   = 13403
ELEMENT_SET_NO = 999
REV_AT_EPOCH   = 37341
BSTAR          = .24980104E-3
MEAN_MOTION_DOT = .6194E-4
MEAN_MOTION_DDOT = 0

CCSDS_OMM_VERS = 2.0
CREATION_DATE  = 
ORIGINATOR     = 

OBJECT_NAME    = SL-14 R/B
OBJECT_ID      = 1982-092B
CENTER_NAME    = EARTH
REF_FRAME      = TEME
TIME_SYSTEM    = UTC
MEAN_ELEMENT_THEORY = SGP/SGP4

EPOCH          = 2026-02-09T10:37:14.310336
MEAN_MOTION    = 14.86635143
ECCENTRICITY   = .00212671
INCLINATION    = 82.5705
RA_OF_ASC_NODE = 167.8117
ARG_OF_PERICENTER = 38.4807
MEAN_ANOMALY   = 26.0624

EPHEMERIS_TYPE = 0
CLASSIFICATION_TYPE = U
NORAD_CAT_ID   = 13553
ELEMENT_SET_NO = 999
REV_AT_EPOCH   = 32473
BSTAR          = .76692572E-4
MEAN_MOTION_DOT = .708E-5
MEAN_MOTION_DDOT = 0

CCSDS_OMM_VERS = 2.0
CREATION_DATE  = 
ORIGINATOR     = 

OBJECT_NAME    = SL-3 R/B
OBJECT_ID      = 1983-010B
CENTER_NAME    = EARTH
REF_FRAME      = TEME
TIME_SYSTEM    = UTC
MEAN_ELEMENT_THEORY = SGP/SGP4

EPOCH          = 2026-02-09T11:21:37.445184
MEAN_MOTION    = 15.45350432
ECCENTRICITY   = .00180217
INCLINATION    = 81.1026
RA_OF_ASC_NODE = 36.8147
ARG_OF_PERICENTER = 140.5545
MEAN_ANOMALY   = 219.7015

EPHEMERIS_TYPE = 0
CLASSIFICATION_TYPE = U
NORAD_CAT_ID   = 13819
ELEMENT_SET_NO = 999
REV_AT_EPOCH   = 35358
BSTAR          = .3459405E-3
MEAN_MOTION_DOT = .16647E-3
MEAN_MOTION_DDOT = 0

CCSDS_OMM_VERS = 2.0
CREATION_DATE  = 
ORIGINATOR     = 

OBJECT_NAME    = SL-3 R/B
OBJECT_ID      = 1983-075B
CENTER_NAME    = EARTH
REF_FRAME      = TEME
TIME_SYSTEM    = UTC
MEAN_ELEMENT_THEORY = SGP/SGP4

EPOCH          = 2026-02-09T13:57:03.325536
MEAN_MOTION    = 15.37691044
ECCENTRICITY   = .00209797
INCLINATION    = 97.6136
RA_OF_ASC_NODE = 44.1150
ARG_OF_PERICENTER = 335.6474
MEAN_ANOMALY   = 24.3776

EPHEMERIS_TYPE = 0
CLASSIFICATION_TYPE = U
NORAD_CAT_ID   = 14208
ELEMENT_SET_NO = 999
REV_AT_EPOCH   = 32583
BSTAR          = .33349601E-3
MEAN_MOTION_DOT = .12351E-3
MEAN_MOTION_DDOT = 0

CCSDS_OMM_VERS = 2.0
CREATION_DATE  = 
ORIGINATOR     = 

OBJECT_NAME    = COSMOS 1536
OBJECT_ID      = 1984-013A
CENTER_NAME    = EARTH
REF_FRAME      = TEME
TIME_SYSTEM    = UTC
MEAN_ELEMENT_THEORY = SGP/SGP4

EPOCH          = 2026-02-09T08:21:37.077984
MEAN_MOTION    = 15.23446670
ECCENTRICITY   = .00148423
INCLINATION    = 82.5467
RA_OF_ASC_NODE = 136.0085
ARG_OF_PERICENTER = 27.8917
MEAN_ANOMALY   = 332.3112

EPHEMERIS_TYPE = 0
CLASSIFICATION_TYPE = U
NORAD_CAT_ID   = 14699
ELEMENT_SET_NO = 999
REV_AT_EPOCH   = 26830
BSTAR          = .29553051E-3
MEAN_MOTION_DOT = .7093E-4
MEAN_MOTION_DDOT = 0

CCSDS_OMM_VERS = 2.0
CREATION_DATE  = 
ORIGINATOR     = 

OBJECT_NAME    = SL-14 R/B
OBJECT_ID      = 1984-027B
CENTER_NAME    = EARTH
REF_FRAME      = TEME
TIME_SYSTEM    = UTC
MEAN_ELEMENT_THEORY = SGP/SGP4

EPOCH          = 2026-02-09T14:42:58.148064
MEAN_MOTION    = 14.85948684
ECCENTRICITY   = .00194252
INCLINATION    = 82.5396
RA_OF_ASC_NODE = 271.3511
ARG_OF_PERICENTER = 68.2104
MEAN_ANOMALY   = 292.1176

EPHEMERIS_TYPE = 0
CLASSIFICATION_TYPE = U
NORAD_CAT_ID   = 14820
ELEMENT_SET_NO = 999
REV_AT_EPOCH   = 24346
BSTAR          = .50750871E-4
MEAN_MOTION_DOT = .469E-5
MEAN_MOTION_DDOT = 0

